CCSDS_OMM_VERS = 2.0
CREATION_DATE  = 
ORIGINATOR     = 

OBJECT_NAME    = 1998-067XK
OBJECT_ID      = 1998-067XK
CENTER_NAME    = EARTH
REF_FRAME      = TEME
TIME_SYSTEM    = UTC
MEAN_ELEMENT_THEORY = SGP/SGP4

EPOCH          = 2026-01-27T00:28:17.986368
MEAN_MOTION    = 15.78430092
ECCENTRICITY   = .00041181
INCLINATION    = 51.6246
RA_OF_ASC_NODE = 265.6269
ARG_OF_PERICENTER = 159.2961
MEAN_ANOMALY   = 200.8207

EPHEMERIS_TYPE = 0
CLASSIFICATION_TYPE = U
NORAD_CAT_ID   = 65731
ELEMENT_SET_NO = 999
REV_AT_EPOCH   = 2026
BSTAR          = .12168113E-2
MEAN_MOTION_DOT = .220266E-2
MEAN_MOTION_DDOT = 0

CCSDS_OMM_VERS = 2.0
CREATION_DATE  = 
ORIGINATOR     = 

OBJECT_NAME    = RSP-03
OBJECT_ID      = 1998-067XL
CENTER_NAME    = EARTH
REF_FRAME      = TEME
TIME_SYSTEM    = UTC
MEAN_ELEMENT_THEORY = SGP/SGP4

EPOCH          = 2026-01-26T17:59:02.332320
MEAN_MOTION    = 15.87842702
ECCENTRICITY   = .00054538
INCLINATION    = 51.6204
RA_OF_ASC_NODE = 264.5262
ARG_OF_PERICENTER = 175.8657
MEAN_ANOMALY   = 184.2394

EPHEMERIS_TYPE = 0
CLASSIFICATION_TYPE = U
NORAD_CAT_ID   = 65732
ELEMENT_SET_NO = 999
REV_AT_EPOCH   = 2026
BSTAR          = .1467184E-2
MEAN_MOTION_DOT = .424302E-2
MEAN_MOTION_DDOT = 0

CCSDS_OMM_VERS = 2.0
CREATION_DATE  = 
ORIGINATOR     = 

OBJECT_NAME    = YOTSUBA-KULOVER
OBJECT_ID      = 1998-067XN
CENTER_NAME    = EARTH
REF_FRAME      = TEME
TIME_SYSTEM    = UTC
MEAN_ELEMENT_THEORY = SGP/SGP4

EPOCH          = 2026-01-26T18:51:00.802080
MEAN_MOTION    = 15.67633382
ECCENTRICITY   = .00044336
INCLINATION    = 51.6263
RA_OF_ASC_NODE = 272.3380
ARG_OF_PERICENTER = 169.0329
MEAN_ANOMALY   = 191.0765

EPHEMERIS_TYPE = 0
CLASSIFICATION_TYPE = U
NORAD_CAT_ID   = 65941
ELEMENT_SET_NO = 999
REV_AT_EPOCH   = 1690
BSTAR          = .11076402E-2
MEAN_MOTION_DOT = .124754E-2
MEAN_MOTION_DDOT = 0

CCSDS_OMM_VERS = 2.0
CREATION_DATE  = 
ORIGINATOR     = 

OBJECT_NAME    = BOTAN
OBJECT_ID      = 1998-067XP
CENTER_NAME    = EARTH
REF_FRAME      = TEME
TIME_SYSTEM    = UTC
MEAN_ELEMENT_THEORY = SGP/SGP4

EPOCH          = 2026-01-26T16:32:33.197568
MEAN_MOTION    = 15.76971767
ECCENTRICITY   = .00052753
INCLINATION    = 51.6210
RA_OF_ASC_NODE = 270.1730
ARG_OF_PERICENTER = 178.3633
MEAN_ANOMALY   = 181.7385

EPHEMERIS_TYPE = 0
CLASSIFICATION_TYPE = U
NORAD_CAT_ID   = 65942
ELEMENT_SET_NO = 999
REV_AT_EPOCH   = 1692
BSTAR          = .15443134E-2
MEAN_MOTION_DOT = .263485E-2
MEAN_MOTION_DDOT = 0

CCSDS_OMM_VERS = 2.0
CREATION_DATE  = 
ORIGINATOR     = 

OBJECT_NAME    = E-KAGAKU-1
OBJECT_ID      = 1998-067XQ
CENTER_NAME    = EARTH
REF_FRAME      = TEME
TIME_SYSTEM    = UTC
MEAN_ELEMENT_THEORY = SGP/SGP4

EPOCH          = 2026-01-26T17:19:26.378112
MEAN_MOTION    = 15.67561224
ECCENTRICITY   = .00031585
INCLINATION    = 51.6283
RA_OF_ASC_NODE = 272.6721
ARG_OF_PERICENTER = 176.1816
MEAN_ANOMALY   = 183.9205

EPHEMERIS_TYPE = 0
CLASSIFICATION_TYPE = U
NORAD_CAT_ID   = 65943
ELEMENT_SET_NO = 999
REV_AT_EPOCH   = 1689
BSTAR          = .10682373E-2
MEAN_MOTION_DOT = .119845E-2
MEAN_MOTION_DDOT = 0

CCSDS_OMM_VERS = 2.0
CREATION_DATE  = 
ORIGINATOR     = 

OBJECT_NAME    = HRC MONOBLOCK CAMERA
OBJECT_ID      = 1998-067XR
CENTER_NAME    = EARTH
REF_FRAME      = TEME
TIME_SYSTEM    = UTC
MEAN_ELEMENT_THEORY = SGP/SGP4

EPOCH          = 2026-01-26T16:14:22.104672
MEAN_MOTION    = 15.57887597
ECCENTRICITY   = .0000528
INCLINATION    = 51.6303
RA_OF_ASC_NODE = 276.8674
ARG_OF_PERICENTER = 41.0184
MEAN_ANOMALY   = 319.0848

EPHEMERIS_TYPE = 0
CLASSIFICATION_TYPE = U
NORAD_CAT_ID   = 66052
ELEMENT_SET_NO = 999
REV_AT_EPOCH   = 1583
BSTAR          = .68319708E-3
MEAN_MOTION_DOT = .51816E-3
MEAN_MOTION_DDOT = 0

CCSDS_OMM_VERS = 2.0
CREATION_DATE  = 
ORIGINATOR     = 

OBJECT_NAME    = HTV-X1
OBJECT_ID      = 2025-241A
CENTER_NAME    = EARTH
REF_FRAME      = TEME
TIME_SYSTEM    = UTC
MEAN_ELEMENT_THEORY = SGP/SGP4

EPOCH          = 2026-01-27T03:26:19.576896
MEAN_MOTION    = 15.48216781
ECCENTRICITY   = .00111495
INCLINATION    = 51.6321
RA_OF_ASC_NODE = 277.7306
ARG_OF_PERICENTER = 34.3982
MEAN_ANOMALY   = 325.7726

EPHEMERIS_TYPE = 0
CLASSIFICATION_TYPE = U
NORAD_CAT_ID   = 66174
ELEMENT_SET_NO = 999
REV_AT_EPOCH   = 51
BSTAR          = .21755997E-3
MEAN_MOTION_DOT = .11252E-3
MEAN_MOTION_DDOT = 0

CCSDS_OMM_VERS = 2.0
CREATION_DATE  = 
ORIGINATOR     = 

OBJECT_NAME    = SHENZHOU-22
OBJECT_ID      = 2025-272A
CENTER_NAME    = EARTH
REF_FRAME      = TEME
TIME_SYSTEM    = UTC
MEAN_ELEMENT_THEORY = SGP/SGP4

EPOCH          = 2026-01-27T05:29:13.184448
MEAN_MOTION    = 15.61162625
ECCENTRICITY   = .00096105
INCLINATION    = 41.4668
RA_OF_ASC_NODE = 100.1488
ARG_OF_PERICENTER = 12.9721
MEAN_ANOMALY   = 347.1363

EPHEMERIS_TYPE = 0
CLASSIFICATION_TYPE = U
NORAD_CAT_ID   = 66645
ELEMENT_SET_NO = 999
REV_AT_EPOCH   = 26764
BSTAR          = .33868129E-3
MEAN_MOTION_DOT = .29284E-3
MEAN_MOTION_DDOT = 0

CCSDS_OMM_VERS = 2.0
CREATION_DATE  = 
ORIGINATOR     = 

OBJECT_NAME    = SOYUZ-MS 28
OBJECT_ID      = 2025-275A
CENTER_NAME    = EARTH
REF_FRAME      = TEME
TIME_SYSTEM    = UTC
MEAN_ELEMENT_THEORY = SGP/SGP4

EPOCH          = 2026-01-27T03:26:19.576032
MEAN_MOTION    = 15.48216781
ECCENTRICITY   = .001115
INCLINATION    = 51.6321
RA_OF_ASC_NODE = 277.7306
ARG_OF_PERICENTER = 34.3982
MEAN_ANOMALY   = 325.7726

EPHEMERIS_TYPE = 0
CLASSIFICATION_TYPE = U
NORAD_CAT_ID   = 66664
ELEMENT_SET_NO = 999
REV_AT_EPOCH   = 54989
BSTAR          = .21756E-3
MEAN_MOTION_DOT = .11252E-3
MEAN_MOTION_DDOT = 0

CCSDS_OMM_VERS = 2.0
CREATION_DATE  = 
ORIGINATOR     = 

OBJECT_NAME    = DUPLEX
OBJECT_ID      = 1998-067XS
CENTER_NAME    = EARTH
REF_FRAME      = TEME
TIME_SYSTEM    = UTC
MEAN_ELEMENT_THEORY = SGP/SGP4

EPOCH          = 2026-01-26T22:26:06.307008
MEAN_MOTION    = 15.53274870
ECCENTRICITY   = .00018858
INCLINATION    = 51.6306
RA_OF_ASC_NODE = 277.8386
ARG_OF_PERICENTER = 61.8176
MEAN_ANOMALY   = 298.3005

EPHEMERIS_TYPE = 0
CLASSIFICATION_TYPE = U
NORAD_CAT_ID   = 66906
ELEMENT_SET_NO = 999
REV_AT_EPOCH   = 863
BSTAR          = .50473691E-3
MEAN_MOTION_DOT = .32047E-3
MEAN_MOTION_DDOT = 0

CCSDS_OMM_VERS = 2.0
CREATION_DATE  = 
ORIGINATOR     = 

OBJECT_NAME    = 1998-067XT
OBJECT_ID      = 1998-067XT
CENTER_NAME    = EARTH
REF_FRAME      = TEME
TIME_SYSTEM    = UTC
MEAN_ELEMENT_THEORY = SGP/SGP4

EPOCH          = 2026-01-26T17:16:13.934208
MEAN_MOTION    = 15.58799011
ECCENTRICITY   = .0003153
INCLINATION    = 51.6281
RA_OF_ASC_NODE = 277.9018
ARG_OF_PERICENTER = 130.0463
MEAN_ANOMALY   = 230.0807

EPHEMERIS_TYPE = 0
CLASSIFICATION_TYPE = U
NORAD_CAT_ID   = 66907
ELEMENT_SET_NO = 999
REV_AT_EPOCH   = 861
BSTAR          = .13454717E-2
MEAN_MOTION_DOT = .106877E-2
MEAN_MOTION_DDOT = 0

